{
    "links": {
        "self": "http://www.neowsapp.com/rest/v1/neo/3578975?api_key=iIulBulltgU6a56xZRHN4H3l9WmuAYTsLGpBGhQ2"
    },
    "id": "3578975",
    "neo_reference_id": "3578975",
    "name": "(2011 SP26)",
    "designation": "2011 SP26",
    "nasa_jpl_url": "http://ssd.jpl.nasa.gov/sbdb.cgi?sstr=3578975",
    "absolute_magnitude_h": 23.8,
    "estimated_diameter": {
        "kilometers": {
            "estimated_diameter_min": 0.046190746,
            "estimated_diameter_max": 0.1032856481
        },
        "meters": {
            "estimated_diameter_min": 46.1907460282,
            "estimated_diameter_max": 103.2856480504
        },
        "miles": {
            "estimated_diameter_min": 0.0287015901,
            "estimated_diameter_max": 0.0641787064
        },
        "feet": {
            "estimated_diameter_min": 151.544447199,
            "estimated_diameter_max": 338.8636855496
        }
    },
    "is_potentially_hazardous_asteroid": false,
    "close_approach_data": [
        {
            "close_approach_date": "1946-08-12",
            "close_approach_date_full": "1946-Aug-12 15:46",
            "epoch_date_close_approach": -738058440000,
            "relative_velocity": {
                "kilometers_per_second": "8.8113192047",
                "kilometers_per_hour": "31720.7491367447",
                "miles_per_hour": "19710.0399288845"
            },
            "miss_distance": {
                "astronomical": "0.025466471",
                "lunar": "9.906457219",
                "kilometers": "3809729.81801677",
                "miles": "2367256.337780626"
            },
            "orbiting_body": "Earth"
        },
        {
            "close_approach_date": "2011-08-24",
            "close_approach_date_full": "2011-Aug-24 13:10",
            "epoch_date_close_approach": 1314191400000,
            "relative_velocity": {
                "kilometers_per_second": "9.6752062082",
                "kilometers_per_hour": "34830.7423496306",
                "miles_per_hour": "21642.4687671913"
            },
            "miss_distance": {
                "astronomical": "0.0226952794",
                "lunar": "8.8284636866",
                "kilometers": "3395165.457294878",
                "miles": "2109657.9890221964"
            },
            "orbiting_body": "Earth"
        }
    ],
    "orbital_data": {
        "orbit_id": "6",
        "orbit_determination_date": "2017-04-06 08:52:45",
        "first_observation_date": "2011-09-20",
        "last_observation_date": "2011-09-30",
        "data_arc_in_days": 10,
        "observations_used": 22,
        "orbit_uncertainty": "8",
        "minimum_orbit_intersection": ".0104736",
        "jupiter_tisserand_invariant": "3.233",
        "epoch_osculation": "2455826.5",
        "eccentricity": ".5863529790241978",
        "semi_major_axis": "2.441144064047784",
        "inclination": "7.016489192148892",
        "ascending_node_longitude": "328.6634733623393",
        "orbital_period": "1393.120047569811",
        "perihelion_distance": "1.009771969866129",
        "perihelion_argument": "343.4627155578293",
        "aphelion_distance": "3.87251615822944",
        "perihelion_time": "2455783.205622381386",
        "mean_anomaly": "11.18781972155921",
        "mean_motion": ".2584127625095855",
        "equinox": "J2000",
        "orbit_class": {
            "orbit_class_type": "APO",
            "orbit_class_description": "Near-Earth asteroid orbits which cross the Earth’s orbit similar to that of 1862 Apollo",
            "orbit_class_range": "a (semi-major axis) > 1.0 AU; q (perihelion) < 1.017 AU"
        }
    },
    "is_sentry_object": false
}